PHISAT 2                
1 60470U 24149C   26068.78834181  .00008925  00000+0  31421-3 0  9996
2 60470  97.3806 148.6498 0001175 168.6230 191.5037 15.29548631 86792
STARLINK-34760          
1 65359U 25190J   26068.59515239  .00023334  00000+0  79774-3 0  9997
2 65359  53.1601 168.4095 0001226  65.5219 294.5909 15.30189445 29276
